[{"OBJECT_NAME":"SL-16 R/B","OBJECT_ID":"1993-059B","EPOCH":"2026-04-11T20:40:57.047232","MEAN_MOTION":14.17238512,"ECCENTRICITY":0.0016561,"INCLINATION":70.9899,"RA_OF_ASC_NODE":301.1746,"ARG_OF_PERICENTER":167.0131,"MEAN_ANOMALY":193.1422,"EPHEMERIS_TYPE":0,"CLASSIFICATION_TYPE":"U","NORAD_CAT_ID":22803,"ELEMENT_SET_NO":999,"REV_AT_EPOCH":68423,"BSTAR":0.00011327,"MEAN_MOTION_DOT":1.81e-6,"MEAN_MOTION_DDOT":0},{"OBJECT_NAME":"ARIANE 40 R/B","OBJECT_ID":"1993-061H","EPOCH":"2026-04-11T10:46:25.176000","MEAN_MOTION":14.32879197,"ECCENTRICITY":0.0010796,"INCLINATION":98.486,"RA_OF_ASC_NODE":169.6804,"ARG_OF_PERICENTER":180.9077,"MEAN_ANOMALY":179.2089,"EPHEMERIS_TYPE":0,"CLASSIFICATION_TYPE":"U","NORAD_CAT_ID":22830,"ELEMENT_SET_NO":999,"REV_AT_EPOCH":69879,"BSTAR":6.8877e-5,"MEAN_MOTION_DOT":1.45e-6,"MEAN_MOTION_DDOT":0},{"OBJECT_NAME":"COSMOS 2278","OBJECT_ID":"1994-023A","EPOCH":"2026-04-11T16:42:48.657600","MEAN_MOTION":14.14377489,"ECCENTRICITY":0.0009623,"INCLINATION":71.0503,"RA_OF_ASC_NODE":106.0412,"ARG_OF_PERICENTER":326.1693,"MEAN_ANOMALY":33.8815,"EPHEMERIS_TYPE":0,"CLASSIFICATION_TYPE":"U","NORAD_CAT_ID":23087,"ELEMENT_SET_NO":999,"REV_AT_EPOCH":64947,"BSTAR":0.00016338,"MEAN_MOTION_DOT":2.66e-6,"MEAN_MOTION_DDOT":0},{"OBJECT_NAME":"SL-16 R/B","OBJECT_ID":"1994-023B","EPOCH":"2026-04-11T19:10:02.656704","MEAN_MOTION":14.15020043,"ECCENTRICITY":0.0005641,"INCLINATION":71.0031,"RA_OF_ASC_NODE":1.3565,"ARG_OF_PERICENTER":257.4419,"MEAN_ANOMALY":102.6073,"EPHEMERIS_TYPE":0,"CLASSIFICATION_TYPE":"U","NORAD_CAT_ID":23088,"ELEMENT_SET_NO":999,"REV_AT_EPOCH":65077,"BSTAR":-5.8542e-5,"MEAN_MOTION_DOT":-1.61e-6,"MEAN_MOTION_DDOT":0},{"OBJECT_NAME":"SL-16 R/B","OBJECT_ID":"1994-074B","EPOCH":"2026-04-11T19:41:20.219424","MEAN_MOTION":14.79446768,"ECCENTRICITY":0.0008019,"INCLINATION":97.7058,"RA_OF_ASC_NODE":131.2888,"ARG_OF_PERICENTER":109.6136,"MEAN_ANOMALY":63.5165,"EPHEMERIS_TYPE":0,"CLASSIFICATION_TYPE":"U","NORAD_CAT_ID":23343,"ELEMENT_SET_NO":999,"REV_AT_EPOCH":69214,"BSTAR":5.0836e-5,"MEAN_MOTION_DOT":3.3e-6,"MEAN_MOTION_DDOT":0},{"OBJECT_NAME":"SL-16 R/B","OBJECT_ID":"1994-077B","EPOCH":"2026-04-11T20:06:44.718048","MEAN_MOTION":14.15566732,"ECCENTRICITY":0.0001223,"INCLINATION":70.9811,"RA_OF_ASC_NODE":282.7504,"ARG_OF_PERICENTER":171.1245,"MEAN_ANOMALY":188.99,"EPHEMERIS_TYPE":0,"CLASSIFICATION_TYPE":"U","NORAD_CAT_ID":23405,"ELEMENT_SET_NO":999,"REV_AT_EPOCH":62092,"BSTAR":3.9179e-5,"MEAN_MOTION_DOT":2.9e-7,"MEAN_MOTION_DDOT":0},{"OBJECT_NAME":"ARIANE 40+ R/B","OBJECT_ID":"1995-021B","EPOCH":"2026-04-11T11:16:42.296736","MEAN_MOTION":14.397968,"ECCENTRICITY":0.0007556,"INCLINATION":98.4444,"RA_OF_ASC_NODE":172.4993,"ARG_OF_PERICENTER":51.9141,"MEAN_ANOMALY":319.7914,"EPHEMERIS_TYPE":0,"CLASSIFICATION_TYPE":"U","NORAD_CAT_ID":23561,"ELEMENT_SET_NO":999,"REV_AT_EPOCH":62396,"BSTAR":7.582e-5,"MEAN_MOTION_DOT":1.94e-6,"MEAN_MOTION_DDOT":0},{"OBJECT_NAME":"SL-16 R/B","OBJECT_ID":"1995-058B","EPOCH":"2026-04-11T18:37:23.613600","MEAN_MOTION":14.15500543,"ECCENTRICITY":0.0010532,"INCLINATION":71.0187,"RA_OF_ASC_NODE":110.7917,"ARG_OF_PERICENTER":65.1502,"MEAN_ANOMALY":295.0715,"EPHEMERIS_TYPE":0,"CLASSIFICATION_TYPE":"U","NORAD_CAT_ID":23705,"ELEMENT_SET_NO":999,"REV_AT_EPOCH":57253,"BSTAR":0.0001811,"MEAN_MOTION_DOT":3.07e-6,"MEAN_MOTION_DDOT":0},{"OBJECT_NAME":"SL-16 R/B","OBJECT_ID":"1996-051B","EPOCH":"2026-04-11T11:02:55.502304","MEAN_MOTION":14.12424603,"ECCENTRICITY":0.0012757,"INCLINATION":70.7578,"RA_OF_ASC_NODE":105.8759,"ARG_OF_PERICENTER":92.9488,"MEAN_ANOMALY":267.3091,"EPHEMERIS_TYPE":0,"CLASSIFICATION_TYPE":"U","NORAD_CAT_ID":24298,"ELEMENT_SET_NO":999,"REV_AT_EPOCH":52627,"BSTAR":5.4829e-5,"MEAN_MOTION_DOT":5.2e-7,"MEAN_MOTION_DDOT":0},{"OBJECT_NAME":"ORBVIEW 2 (SEASTAR)","OBJECT_ID":"1997-037A","EPOCH":"2026-04-11T20:59:24.785088","MEAN_MOTION":14.35518928,"ECCENTRICITY":0.0001657,"INCLINATION":98.8625,"RA_OF_ASC_NODE":267.0757,"ARG_OF_PERICENTER":351.2652,"MEAN_ANOMALY":8.8503,"EPHEMERIS_TYPE":0,"CLASSIFICATION_TYPE":"U","NORAD_CAT_ID":24883,"ELEMENT_SET_NO":999,"REV_AT_EPOCH":51323,"BSTAR":8.5361e-5,"MEAN_MOTION_DOT":1.99e-6,"MEAN_MOTION_DDOT":0},{"OBJECT_NAME":"SL-16 R/B","OBJECT_ID":"1998-043G","EPOCH":"2026-04-11T20:21:59.421024","MEAN_MOTION":14.26057684,"ECCENTRICITY":0.0008774,"INCLINATION":98.8306,"RA_OF_ASC_NODE":55.4587,"ARG_OF_PERICENTER":279.8617,"MEAN_ANOMALY":80.1571,"EPHEMERIS_TYPE":0,"CLASSIFICATION_TYPE":"U","NORAD_CAT_ID":25400,"ELEMENT_SET_NO":999,"REV_AT_EPOCH":44371,"BSTAR":3.5258e-5,"MEAN_MOTION_DOT":3.9e-7,"MEAN_MOTION_DDOT":0},{"OBJECT_NAME":"SL-16 R/B","OBJECT_ID":"1998-045B","EPOCH":"2026-04-11T18:29:42.913248","MEAN_MOTION":14.1619738,"ECCENTRICITY":0.0008674,"INCLINATION":71.0087,"RA_OF_ASC_NODE":112.0062,"ARG_OF_PERICENTER":320.9861,"MEAN_ANOMALY":39.0636,"EPHEMERIS_TYPE":0,"CLASSIFICATION_TYPE":"U","NORAD_CAT_ID":25407,"ELEMENT_SET_NO":999,"REV_AT_EPOCH":43178,"BSTAR":0.00015564,"MEAN_MOTION_DOT":2.61e-6,"MEAN_MOTION_DDOT":0},{"OBJECT_NAME":"ISS (ZARYA)","OBJECT_ID":"1998-067A","EPOCH":"2026-04-11T19:29:13.534080","MEAN_MOTION":15.48876576,"ECCENTRICITY":0.0006452,"INCLINATION":51.6328,"RA_OF_ASC_NODE":268.5866,"ARG_OF_PERICENTER":301.0443,"MEAN_ANOMALY":58.9912,"EPHEMERIS_TYPE":0,"CLASSIFICATION_TYPE":"U","NORAD_CAT_ID":25544,"ELEMENT_SET_NO":999,"REV_AT_EPOCH":56146,"BSTAR":0.00011297,"MEAN_MOTION_DOT":5.753e-5,"MEAN_MOTION_DDOT":0},{"OBJECT_NAME":"CZ-4B R/B","OBJECT_ID":"1999-025C","EPOCH":"2026-04-11T13:28:52.822272","MEAN_MOTION":14.18272068,"ECCENTRICITY":0.0036039,"INCLINATION":98.6562,"RA_OF_ASC_NODE":145.0542,"ARG_OF_PERICENTER":249.6841,"MEAN_ANOMALY":277.5553,"EPHEMERIS_TYPE":0,"CLASSIFICATION_TYPE":"U","NORAD_CAT_ID":25732,"ELEMENT_SET_NO":999,"REV_AT_EPOCH":39282,"BSTAR":3.5375e-5,"MEAN_MOTION_DOT":3.0e-7,"MEAN_MOTION_DDOT":0},{"OBJECT_NAME":"OKEAN-O","OBJECT_ID":"1999-039A","EPOCH":"2026-04-11T18:31:51.443616","MEAN_MOTION":14.8038966,"ECCENTRICITY":0.0001096,"INCLINATION":97.9376,"RA_OF_ASC_NODE":161.3159,"ARG_OF_PERICENTER":113.2644,"MEAN_ANOMALY":246.8683,"EPHEMERIS_TYPE":0,"CLASSIFICATION_TYPE":"U","NORAD_CAT_ID":25860,"ELEMENT_SET_NO":999,"REV_AT_EPOCH":43928,"BSTAR":6.8283e-5,"MEAN_MOTION_DOT":4.69e-6,"MEAN_MOTION_DDOT":0},{"OBJECT_NAME":"SL-16 R/B","OBJECT_ID":"1999-039B","EPOCH":"2026-04-11T02:43:00.419520","MEAN_MOTION":14.81778333,"ECCENTRICITY":0.00155554,"INCLINATION":97.9901,"RA_OF_ASC_NODE":160.1501,"ARG_OF_PERICENTER":147.9125,"MEAN_ANOMALY":212.3038,"EPHEMERIS_TYPE":0,"CLASSIFICATION_TYPE":"U","NORAD_CAT_ID":25861,"ELEMENT_SET_NO":999,"REV_AT_EPOCH":44166,"BSTAR":6.5830907e-5,"MEAN_MOTION_DOT":4.66e-6,"MEAN_MOTION_DDOT":0},{"OBJECT_NAME":"DELTA 2 R/B","OBJECT_ID":"1999-041E","EPOCH":"2026-04-11T13:42:38.712960","MEAN_MOTION":14.11912598,"ECCENTRICITY":0.0502575,"INCLINATION":51.7602,"RA_OF_ASC_NODE":169.9235,"ARG_OF_PERICENTER":85.3928,"MEAN_ANOMALY":280.4206,"EPHEMERIS_TYPE":0,"CLASSIFICATION_TYPE":"U","NORAD_CAT_ID":25876,"ELEMENT_SET_NO":999,"REV_AT_EPOCH":36767,"BSTAR":0.00015499,"MEAN_MOTION_DOT":7.16e-6,"MEAN_MOTION_DDOT":0}]
