SL-16 R/B               
1 22803U 93059B   26101.86177138  .00000181  00000+0  11327-3 0  9998
2 22803  70.9899 301.1746 0016561 167.0131 193.1422 14.17238512684238
ARIANE 40 R/B           
1 22830U 93061H   26101.44890250  .00000145  00000+0  68877-4 0  9995
2 22830  98.4860 169.6804 0010796 180.9077 179.2089 14.32879197698797
COSMOS 2278             
1 23087U 94023A   26101.69639650  .00000266  00000+0  16338-3 0  9999
2 23087  71.0503 106.0412 0009623 326.1693  33.8815 14.14377489649478
SL-16 R/B               
1 23088U 94023B   26101.79864186 -.00000161  00000+0 -58542-4 0  9995
2 23088  71.0031   1.3565 0005641 257.4419 102.6073 14.15020043650777
SL-16 R/B               
1 23343U 94074B   26101.82037291  .00000330  00000+0  50836-4 0  9992
2 23343  97.7058 131.2888 0008019 109.6136  63.5165 14.79446768692142
SL-16 R/B               
1 23405U 94077B   26101.83801757  .00000029  00000+0  39179-4 0  9993
2 23405  70.9811 282.7504 0001223 171.1245 188.9900 14.15566732620923
ARIANE 40+ R/B          
1 23561U 95021B   26101.46993399  .00000194  00000+0  75820-4 0  9995
2 23561  98.4444 172.4993 0007556  51.9141 319.7914 14.39796800623968
SL-16 R/B               
1 23705U 95058B   26101.77596775  .00000307  00000+0  18110-3 0  9990
2 23705  71.0187 110.7917 0010532  65.1502 295.0715 14.15500543572538
SL-16 R/B               
1 24298U 96051B   26101.46036461  .00000052  00000+0  54829-4 0  9994
2 24298  70.7578 105.8759 0012757  92.9488 267.3091 14.12424603526275
ORBVIEW 2 (SEASTAR)     
1 24883U 97037A   26101.87459242  .00000199  00000+0  85361-4 0  9997
2 24883  98.8625 267.0757 0001657 351.2652   8.8503 14.35518928513236
SL-16 R/B               
1 25400U 98043G   26101.84860441  .00000039  00000+0  35258-4 0  9998
2 25400  98.8306  55.4587 0008774 279.8617  80.1571 14.26057684443711
SL-16 R/B               
1 25407U 98045B   26101.77063557  .00000261  00000+0  15564-3 0  9996
2 25407  71.0087 112.0062 0008674 320.9861  39.0636 14.16197380431789
ISS (ZARYA)             
1 25544U 98067A   26101.81196220  .00005753  00000+0  11297-3 0  9991
2 25544  51.6328 268.5866 0006452 301.0443  58.9912 15.48876576561463
CZ-4B R/B               
1 25732U 99025C   26101.56172248  .00000030  00000+0  35375-4 0  9998
2 25732  98.6562 145.0542 0036039 249.6841 277.5553 14.18272068392820
OKEAN-O                 
1 25860U 99039A   26101.77212319  .00000469  00000+0  68283-4 0  9992
2 25860  97.9376 161.3159 0001096 113.2644 246.8683 14.80389660439285
SL-16 R/B               
1 25861U 99039B   26101.11319930  .00000466  00000+0  65831-4 0  9991
2 25861  97.9901 160.1501 0015555 147.9125 212.3038 14.81778333441668
DELTA 2 R/B             
1 25876U 99041E   26101.57128140  .00000716  00000+0  15499-3 0  9993
2 25876  51.7602 169.9235 0502575  85.3928 280.4206 14.11912598367677
